ONEWEB-0709             
1 55172U 23004AJ  25109.07058371  .00000105  00000+0  26012-3 0  9996
2 55172  87.8791 105.6397 0001107 104.4814 255.6437 13.11417039110299
ONEWEB-0710             
1 55173U 23004AK  25108.49278683  .00000006  00000+0 -18937-4 0  9991
2 55173  87.9017  90.4619 0002081  90.1611 269.9759 13.17649377111652
ONEWEB-0711             
1 55174U 23004AL  25109.04177566  .00000348  00000+0  94529-3 0  9990
2 55174  87.8792 105.6131 0002663 101.7736 258.3690 13.11420714110250
ONEWEB-0713             
1 55175U 23004AM  25109.06041896  .00000508  00000+0  13966-2 0  9992
2 55175  87.8790 105.6172 0002251  94.4952 265.6433 13.11417526110236
ONEWEB-0715             
1 55176U 23004AN  25108.52126394  .00000522  00000+0  14382-2 0  9999
2 55176  87.8792 105.7249 0001748  98.5025 261.6301 13.11414814110216
ONEWEB-0716             
1 55177U 23004AP  25109.47319701  .00000072  00000+0  15197-3 0  9997
2 55177  87.9019  90.2640 0002004  79.7076 280.4282 13.17647187111783
ONEWEB-0717             
1 55178U 23004AQ  25109.00072077  .00000144  00000+0  33728-3 0  9999
2 55178  87.9016  90.3181 0002435 103.1234 257.0169 13.17647905111779
ONEWEB-0719             
1 55179U 23004AR  25109.01084779  .00000013  00000+0 -92319-6 0  9993
2 55179  87.9015  90.3001 0002134  79.4021 280.7351 13.17647856111721
ONEWEB-0530             
1 55796U 23029A   25108.77665831  .00000075  00000+0  15146-3 0  9998
2 55796  87.9318 358.9783 0002365  90.2627 269.8778 13.20770697105831
ONEWEB-0534             
1 55797U 23029B   25109.14281506 -.00000237  00000+0 -61421-3 0  9993
2 55797  87.9319 358.9135 0001849  78.1401 281.9939 13.20771671105865
ONEWEB-0556             
1 55798U 23029C   25109.14911722  .00001521  00000+0  37069-2 0  9999
2 55798  87.9313 358.9040 0002490  74.6986 285.4422 13.20786712105865
ONEWEB-0562             
1 55799U 23029D   25109.13651588 -.00000076  00000+0 -21767-3 0  9995
2 55799  87.9316 358.9001 0002803  87.2870 272.8584 13.20771237105850
ONEWEB-0563             
1 55800U 23029E   25109.20595580 -.00000210  00000+0 -54870-3 0  9996
2 55800  87.9320 358.9006 0001802  70.6799 289.4530 13.20771246105852
ONEWEB-0564             
1 55801U 23029F   25108.74510909 -.00000044  00000+0 -13954-3 0  9990
2 55801  87.9321 358.9805 0002227  86.2866 273.8522 13.20772181105836
ONEWEB-0638             
1 55802U 23029G   25108.27524354  .00000158  00000+0  39292-3 0  9995
2 55802  87.9092  14.2746 0002360  75.6636 284.4756 13.14501881104288
ONEWEB-0639             
1 55803U 23029H   25109.21603897 -.00000049  00000+0 -15357-3 0  9998
2 55803  87.9260  29.2541 0001588  39.0241 321.1006 13.19724632103677
ONEWEB-0640             
1 55804U 23029J   25108.28475577  .00000046  00000+0  89344-4 0  9990
2 55804  87.9093  14.2617 0002356  64.2534 295.8839 13.14501680104278
ONEWEB-0641             
1 55805U 23029K   25109.21130026  .00000087  00000+0  18521-3 0  9995
2 55805  87.9257  29.2281 0001744  71.8761 288.2561 13.19724964103689
ONEWEB-0642             
1 55806U 23029L   25109.20656188  .00000107  00000+0  23600-3 0  9994
2 55806  87.9262  29.2640 0001257  51.0595 309.0650 13.19725271103671
ONEWEB-0643             
1 55807U 23029M   25109.16803898  .00000301  00000+0  77654-3 0  9996
2 55807  87.9090  14.0676 0001055  72.6649 287.4596 13.14503656104391
ONEWEB-0644             
1 55808U 23029N   25108.21620852  .00000106  00000+0  23179-3 0  9995
2 55808  87.9262  29.4628 0001518  63.1708 296.9580 13.19724909103540
ONEWEB-0645             
1 55809U 23029P   25109.27369804  .00000146  00000+0  33153-3 0  9997
2 55809  87.9261  29.2506 0001934  68.2790 291.8548 13.19729490103685
ONEWEB-0646             
1 55810U 23029Q   25108.84879210  .00000019  00000+0  15841-4 0  9992
2 55810  87.9262  29.3293 0001640  75.4809 284.6505 13.19724161103613
ONEWEB-0648             
1 55811U 23029R   25109.13632286 -.00000121  00000+0 -36003-3 0  9994
2 55811  87.9095  14.0493 0001675  47.3646 312.7624 13.14503285104394
ONEWEB-0649             
1 55812U 23029S   25109.34240411  .00000113  00000+0  25061-3 0  9994
2 55812  87.9259  29.2212 0001739  63.4461 296.6849 13.19725133103716
ONEWEB-0650             
1 55813U 23029T   25109.18603204  .00000129  00000+0  29008-3 0  9992
2 55813  87.9263  29.2603 0001734  75.1610 284.9715 13.19725432103665
ONEWEB-0652             
1 55814U 23029U   25109.26951948  .00000185  00000+0  46554-3 0  9990
2 55814  87.9093  14.0332 0001920  85.4890 274.6459 13.14504894104360
ONEWEB-0653             
1 55815U 23029V   25108.79696962  .00000281  00000+0  72218-3 0  9993
2 55815  87.9093  14.1149 0002079  79.5449 280.5915 13.14501852104339
ONEWEB-0654             
1 55816U 23029W   25109.24891636  .00000221  00000+0  56054-3 0  9994
2 55816  87.9090  14.0265 0002175  83.6465 276.4912 13.14502887104415
ONEWEB-0656             
1 55817U 23029X   25109.11756898  .00000116  00000+0  25291-3 0  9993
2 55817  87.9322 358.8469 0002172  90.7585 269.3797 13.20770171105859
ONEWEB-0657             
1 55818U 23029Y   25109.18128990  .00000150  00000+0  34189-3 0  9991
2 55818  87.9262  29.2664 0001773 101.6777 258.4555 13.19724349103662
ONEWEB-0658             
1 55819U 23029Z   25108.34257069  .00000080  00000+0  16691-3 0  9999
2 55819  87.9261  29.3666 0001491  69.5277 290.6015 13.19725239103566
ONEWEB-0660             
1 55820U 23029AA  25109.15059869 -.00000148  00000+0 -43345-3 0  9992
2 55820  87.9093  14.0183 0001936  67.2334 292.9000 13.14502517104409
ONEWEB-0661             
1 55821U 23029AB  25109.18548526  .00000321  00000+0  83028-3 0  9992
2 55821  87.9092  14.0815 0001985  70.2870 289.8473 13.14501828104373
ONEWEB-0662             
1 55822U 23029AC  25109.14424882 -.00000173  00000+0 -50085-3 0  9991
2 55822  87.9093  14.0963 0001857  69.0379 291.0949 13.14501753104434
ONEWEB-0663             
1 55823U 23029AD  25108.72280078  .00000108  00000+0  23319-3 0  9998
2 55823  87.9319 358.9815 0001782  67.5171 292.6151 13.20833929105794
ONEWEB-0664             
1 55824U 23029AE  25109.10495210  .00000107  00000+0  23127-3 0  9994
2 55824  87.9325 358.9263 0002262  79.4426 280.6962 13.20772221105859
ONEWEB-0665             
1 55825U 23029AF  25108.26889992  .00000221  00000+0  56112-3 0  9992
2 55825  87.9092  14.2380 0001825  71.3058 288.8270 13.14501606104276
ONEWEB-0666             
1 55826U 23029AG  25109.25015279  .00000081  00000+0  16842-3 0  9992
2 55826  87.9321 358.8860 0002013  93.3772 266.7592 13.20772109105873
ONEWEB-0667             
1 55827U 23029AH  25108.25899954  .00000047  00000+0  83933-4 0  9990
2 55827  87.9321 359.0148 0001953  76.0767 284.0583 13.20771052105734
ONEWEB-0669             
1 55828U 23029AJ  25108.25426544  .00000080  00000+0  16414-3 0  9998
2 55828  87.9321 359.0512 0002502  93.3144 266.8276 13.20772235105733
ONEWEB-0670             
1 55829U 23029AK  25109.16011308 -.00000012  00000+0 -66164-4 0  9993
2 55829  87.9094  14.0766 0002159  70.6633 289.4730 13.14502739104412
ONEWEB-0671             
1 55830U 23029AL  25108.33784529  .00000089  00000+0  19010-3 0  9994
2 55830  87.9260  29.4275 0002022  74.8504 285.2852 13.19726604103553
ONEWEB-0672             
1 55831U 23029AM  25109.15861198  .00000072  00000+0  14446-3 0  9994
2 55831  87.9321 358.8576 0001919  94.8614 265.2738 13.20772156105854
ONEWEB-0673             
1 55832U 23029AN  25109.14812370 -.00000107  00000+0 -30023-3 0  9992
2 55832  87.9259  29.2312 0001669  73.4823 286.6493 13.19724454103689
ONEWEB-0674             
1 55833U 23029AP  25108.29110200 -.00000081  00000+0 -25273-3 0  9993
2 55833  87.9092  14.2391 0002298  71.0679 289.0699 13.14502955104274
ONEWEB-0675             
1 55834U 23029AQ  25109.16391393  .00000216  00000+0  50625-3 0  9992
2 55834  87.9265  29.2737 0001694  87.9422 272.1905 13.19726052103709
ONEWEB-0720             
1 55835U 23029AR  25108.85274170  .00000163  00000+0  37537-3 0  9999
2 55835  87.9263  29.3327 0001779  64.0839 296.0477 13.19724426103562
ONEWEB-0537             
1 56046U 23043A   25109.13155123 -.00000043  00000+0 -14647-3 0  9994
2 56046  87.9026 313.2907 0001715  96.1801 263.9525 13.16595711104072
ONEWEB-0538             
1 56047U 23043B   25109.12522493  .00000032  00000+0  49942-4 0  9995
2 56047  87.9028 313.3143 0001415  91.2262 268.9031 13.16595771104086
ONEWEB-0546             
1 56048U 23043C   25109.11255072  .00000021  00000+0  22505-4 0  9995
2 56048  87.9031 313.2855 0002060 108.2969 251.8386 13.16595829104077
ONEWEB-0547             
1 56049U 23043D   25108.51691552 -.00000002  00000+0 -35835-4 0  9997
2 56049  87.9271 328.6716 0001546  82.8984 277.2326 13.21826143103035
ONEWEB-0548             
1 56050U 23043E   25108.52990938  .00000006  00000+0 -18981-4 0  9996
2 56050  87.9029 313.4432 0002205  80.0908 280.0471 13.16596148103995
ONEWEB-0549             
1 56051U 23043F   25108.12976155  .00000020  00000+0  16694-4 0  9992
2 56051  87.9272 328.7530 0001432  81.3067 278.8229 13.21825256102980
ONEWEB-0550             
1 56052U 23043G   25109.10120351 -.00000314  00000+0 -79229-3 0  9991
2 56052  87.9274 328.5549 0001943  85.0425 275.0930 13.21827712103110
ONEWEB-0551             
1 56053U 23043H   25109.13562061 -.00000107  00000+0 -31710-3 0  9996
2 56053  87.9096 343.7441 0001605  77.6425 282.4884 13.15547047101554
ONEWEB-0552             
1 56054U 23043J   25109.17058825  .00000064  00000+0  12433-3 0  9990
2 56054  87.9274 328.5500 0001740  76.3445 283.7883 13.21826131103127
ONEWEB-0553             
1 56055U 23043K   25109.49889757 -.00000020  00000+0 -85382-4 0  9990
2 56055  87.9029 313.2374 0002060  98.8584 261.2780 13.16595763104132
ONEWEB-0554             
1 56056U 23043L   25109.10622243  .00000048  00000+0  91475-4 0  9992
2 56056  87.9032 313.3446 0001994  84.5630 275.5728 13.16595778104065
